{"type": "FeatureCollection", "features": [ {"type": "Feature", "properties": {"norad_id": 33917, "name": "COSMOS 2251 DEB", "group": "cosmos-2251-debris", "lat": 45.32367917871445, "lon": -89.93315832767246, "alt_km": 920.4382487566263, "timestamp": "2025-12-22T05:49:03.894239+00:00", "meta": {"OBJECT_NAME": "COSMOS 2251 DEB", "OBJECT_ID": "1993-036DW", "EPOCH": "2025-12-21T01:05:42.517536", "MEAN_MOTION": 13.69375159, "ECCENTRICITY": 0.03312637, "INCLINATION": 74.1072, "RA_OF_ASC_NODE": 108.7746, "ARG_OF_PERICENTER": 207.9279, "MEAN_ANOMALY": 150.3716, "EPHEMERIS_TYPE": 0, "CLASSIFICATION_TYPE": "U", "NORAD_CAT_ID": 33917, "ELEMENT_SET_NO": 999, "REV_AT_EPOCH": 83847, "BSTAR": 0.00060207041, "MEAN_MOTION_DOT": 7.47e-06, "MEAN_MOTION_DDOT": 0}, "tle": {"line1": "1 33917U 93036DW  25355.04563099  .00000747  00000+0  60207-3 0  9995", "line2": "2 33917  74.1072 108.7746 0331263 207.9279 150.3716 13.69375159838475"}}, "geometry": {"type": "Point", "coordinates": [-89.93315832767246, 45.32367917871445]}}, {"type": "Feature", "properties": {"norad_id": 33920, "name": "COSMOS 2251 DEB", "group": "cosmos-2251-debris", "lat": 18.65996877773357, "lon": -74.09296550746839, "alt_km": 700.0516506991171, "timestamp": "2025-12-22T05:49:03.894250+00:00", "meta": {"OBJECT_NAME": "COSMOS 2251 DEB", "OBJECT_ID": "1993-036DZ", "EPOCH": "2025-12-21T05:02:03.425568", "MEAN_MOTION": 14.58395783, "ECCENTRICITY": 0.0037911, "INCLINATION": 74.0619, "RA_OF_ASC_NODE": 282.3307, "ARG_OF_PERICENTER": 287.7031, "MEAN_ANOMALY": 71.9996, "EPHEMERIS_TYPE": 0, "CLASSIFICATION_TYPE": "U", "NORAD_CAT_ID": 33920, "ELEMENT_SET_NO": 999, "REV_AT_EPOCH": 88238, "BSTAR": 0.0012071, "MEAN_MOTION_DOT": 5.624e-05, "MEAN_MOTION_DDOT": 0}, "tle": {"line1": "1 33920U 93036DZ  25355.20976187  .00005624  00000+0  12071-2 0  9997", "line2": "2 33920  74.0619 282.3307 0037911 287.7031  71.9996 14.58395783882383"}}, "geometry": {"type": "Point", "coordinates": [-74.09296550746839, 18.65996877773357]}}, {"type": "Feature", "properties": {"norad_id": 33922, "name": "COSMOS 2251 DEB", "group": "cosmos-2251-debris", "lat": -37.62077731923747, "lon": -37.318645944594586, "alt_km": 717.737491548135, "timestamp": "2025-12-22T05:49:03.894260+00:00", "meta": {"OBJECT_NAME": "COSMOS 2251 DEB", "OBJECT_ID": "1993-036EB", "EPOCH": "2025-12-21T19:35:38.615424", "MEAN_MOTION": 14.49537686, "ECCENTRICITY": 0.0023162, "INCLINATION": 74.0469, "RA_OF_ASC_NODE": 130.7443, "ARG_OF_PERICENTER": 240.3386, "MEAN_ANOMALY": 277.0325, "EPHEMERIS_TYPE": 0, "CLASSIFICATION_TYPE": "U", "NORAD_CAT_ID": 33922, "ELEMENT_SET_NO": 999, "REV_AT_EPOCH": 88709, "BSTAR": 0.00038977, "MEAN_MOTION_DOT": 1.472e-05, "MEAN_MOTION_DDOT": 0}, "tle": {"line1": "1 33922U 93036EB  25355.81641916  .00001472  00000+0  38977-3 0  9996", "line2": "2 33922  74.0469 130.7443 0023162 240.3386 277.0325 14.49537686887094"}}, "geometry": {"type": "Point", "coordinates": [-37.318645944594586, -37.62077731923747]}}, {"type": "Feature", "properties": {"norad_id": 33924, "name": "COSMOS 2251 DEB", "group": "cosmos-2251-debris", "lat": 0.3214561728144777, "lon": -104.98011661957226, "alt_km": 968.7764988801691, "timestamp": "2025-12-22T05:49:03.894271+00:00", "meta": {"OBJECT_NAME": "COSMOS 2251 DEB", "OBJECT_ID": "1993-036ED", "EPOCH": "2025-12-21T17:22:09.909120", "MEAN_MOTION": 13.50235891, "ECCENTRICITY": 0.0403868, "INCLINATION": 73.9133, "RA_OF_ASC_NODE": 255.7605, "ARG_OF_PERICENTER": 289.6283, "MEAN_ANOMALY": 66.1659, "EPHEMERIS_TYPE": 0, "CLASSIFICATION_TYPE": "U", "NORAD_CAT_ID": 33924, "ELEMENT_SET_NO": 999, "REV_AT_EPOCH": 82860, "BSTAR": 0.0004019, "MEAN_MOTION_DOT": 4.02e-06, "MEAN_MOTION_DDOT": 0}, "tle": {"line1": "1 33924U 93036ED  25355.72372580  .00000402  00000+0  40190-3 0  9998", "line2": "2 33924  73.9133 255.7605 0403868 289.6283  66.1659 13.50235891828600"}}, "geometry": {"type": "Point", "coordinates": [-104.98011661957226, 0.3214561728144777]}}, {"type": "Feature", "properties": {"norad_id": 33928, "name": "COSMOS 2251 DEB", "group": "cosmos-2251-debris", "lat": -8.418633484882665, "lon": 32.22814991681422, "alt_km": 697.6250927316651, "timestamp": "2025-12-22T05:49:03.894281+00:00", "meta": {"OBJECT_NAME": "COSMOS 2251 DEB", "OBJECT_ID": "1993-036EH", "EPOCH": "2025-12-21T19:54:17.960256", "MEAN_MOTION": 14.47419922, "ECCENTRICITY": 0.0061901, "INCLINATION": 73.9254, "RA_OF_ASC_NODE": 35.4513, "ARG_OF_PERICENTER": 327.7005, "MEAN_ANOMALY": 32.0369, "EPHEMERIS_TYPE": 0, "CLASSIFICATION_TYPE": "U", "NORAD_CAT_ID": 33928, "ELEMENT_SET_NO": 999, "REV_AT_EPOCH": 88776, "BSTAR": 0.00020013, "MEAN_MOTION_DOT": 7.22e-06, "MEAN_MOTION_DDOT": 0}, "tle": {"line1": "1 33928U 93036EH  25355.82937454  .00000722  00000+0  20013-3 0  9997", "line2": "2 33928  73.9254  35.4513 0061901 327.7005  32.0369 14.47419922887761"}}, "geometry": {"type": "Point", "coordinates": [32.22814991681422, -8.418633484882665]}}, {"type": "Feature", "properties": {"norad_id": 33932, "name": "COSMOS 2251 DEB", "group": "cosmos-2251-debris", "lat": -12.585065999614407, "lon": 122.05596733104608, "alt_km": 792.1733898320517, "timestamp": "2025-12-22T05:49:03.894291+00:00", "meta": {"OBJECT_NAME": "COSMOS 2251 DEB", "OBJECT_ID": "1993-036EM", "EPOCH": "2025-12-21T13:54:19.417824", "MEAN_MOTION": 14.38781896, "ECCENTRICITY": 0.0035784, "INCLINATION": 74.0342, "RA_OF_ASC_NODE": 299.6138, "ARG_OF_PERICENTER": 13.6493, "MEAN_ANOMALY": 346.562, "EPHEMERIS_TYPE": 0, "CLASSIFICATION_TYPE": "U", "NORAD_CAT_ID": 33932, "ELEMENT_SET_NO": 999, "REV_AT_EPOCH": 88125, "BSTAR": 0.00037522, "MEAN_MOTION_DOT": 1.135e-05, "MEAN_MOTION_DDOT": 0}, "tle": {"line1": "1 33932U 93036EM  25355.57939141  .00001135  00000+0  37522-3 0  9991", "line2": "2 33932  74.0342 299.6138 0035784  13.6493 346.5620 14.38781896881258"}}, "geometry": {"type": "Point", "coordinates": [122.05596733104608, -12.585065999614407]}}, {"type": "Feature", "properties": {"norad_id": 33933, "name": "COSMOS 2251 DEB", "group": "cosmos-2251-debris", "lat": -39.31093243006344, "lon": -123.67488871071087, "alt_km": 836.5193056962617, "timestamp": "2025-12-22T05:49:03.894301+00:00", "meta": {"OBJECT_NAME": "COSMOS 2251 DEB", "OBJECT_ID": "1993-036EN", "EPOCH": "2025-12-21T05:20:39.760224", "MEAN_MOTION": 14.33500996, "ECCENTRICITY": 0.0070915, "INCLINATION": 74.089, "RA_OF_ASC_NODE": 44.6759, "ARG_OF_PERICENTER": 50.5471, "MEAN_ANOMALY": 310.1926, "EPHEMERIS_TYPE": 0, "CLASSIFICATION_TYPE": "U", "NORAD_CAT_ID": 33933, "ELEMENT_SET_NO": 999, "REV_AT_EPOCH": 87906, "BSTAR": 0.00020936, "MEAN_MOTION_DOT": 5.7e-06, "MEAN_MOTION_DDOT": 0}, "tle": {"line1": "1 33933U 93036EN  25355.22268241  .00000570  00000+0  20936-3 0  9993", "line2": "2 33933  74.0890  44.6759 0070915  50.5471 310.1926 14.33500996879062"}}, "geometry": {"type": "Point", "coordinates": [-123.67488871071087, -39.31093243006344]}}, {"type": "Feature", "properties": {"norad_id": 33934, "name": "COSMOS 2251 DEB", "group": "cosmos-2251-debris", "lat": 43.51715158795851, "lon": -113.30309441637846, "alt_km": 688.4674472529086, "timestamp": "2025-12-22T05:49:03.894312+00:00", "meta": {"OBJECT_NAME": "COSMOS 2251 DEB", "OBJECT_ID": "1993-036EP", "EPOCH": "2025-12-21T16:02:25.230912", "MEAN_MOTION": 14.59175204, "ECCENTRICITY": 0.0015311, "INCLINATION": 74.0382, "RA_OF_ASC_NODE": 83.5598, "ARG_OF_PERICENTER": 207.3518, "MEAN_ANOMALY": 152.6842, "EPHEMERIS_TYPE": 0, "CLASSIFICATION_TYPE": "U", "NORAD_CAT_ID": 33934, "ELEMENT_SET_NO": 999, "REV_AT_EPOCH": 88869, "BSTAR": 0.00065385, "MEAN_MOTION_DOT": 3.058e-05, "MEAN_MOTION_DDOT": 0}, "tle": {"line1": "1 33934U 93036EP  25355.66834758  .00003058  00000+0  65385-3 0  9995", "line2": "2 33934  74.0382  83.5598 0015311 207.3518 152.6842 14.59175204888698"}}, "geometry": {"type": "Point", "coordinates": [-113.30309441637846, 43.51715158795851]}}, {"type": "Feature", "properties": {"norad_id": 33936, "name": "COSMOS 2251 DEB", "group": "cosmos-2251-debris", "lat": 70.39845815601184, "lon": 145.73081976183153, "alt_km": 678.722231650625, "timestamp": "2025-12-22T05:49:03.894322+00:00", "meta": {"OBJECT_NAME": "COSMOS 2251 DEB", "OBJECT_ID": "1993-036ER", "EPOCH": "2025-12-21T19:29:19.770432", "MEAN_MOTION": 14.60321095, "ECCENTRICITY": 0.0026943, "INCLINATION": 74.0177, "RA_OF_ASC_NODE": 20.1439, "ARG_OF_PERICENTER": 173.4173, "MEAN_ANOMALY": 186.7352, "EPHEMERIS_TYPE": 0, "CLASSIFICATION_TYPE": "U", "NORAD_CAT_ID": 33936, "ELEMENT_SET_NO": 999, "REV_AT_EPOCH": 89022, "BSTAR": 0.00047527, "MEAN_MOTION_DOT": 2.279e-05, "MEAN_MOTION_DDOT": 0}, "tle": {"line1": "1 33936U 93036ER  25355.81203438  .00002279  00000+0  47527-3 0  9991", "line2": "2 33936  74.0177  20.1439 0026943 173.4173 186.7352 14.60321095890225"}}, "geometry": {"type": "Point", "coordinates": [145.73081976183153, 70.39845815601184]}}, {"type": "Feature", "properties": {"norad_id": 33938, "name": "COSMOS 2251 DEB", "group": "cosmos-2251-debris", "lat": -32.661060342420214, "lon": 20.002442941231863, "alt_km": 735.2231902852309, "timestamp": "2025-12-22T05:49:03.894332+00:00", "meta": {"OBJECT_NAME": "COSMOS 2251 DEB", "OBJECT_ID": "1993-036ET", "EPOCH": "2025-12-21T14:08:57.781824", "MEAN_MOTION": 14.46817921, "ECCENTRICITY": 0.0016812, "INCLINATION": 74.0437, "RA_OF_ASC_NODE": 190.653, "ARG_OF_PERICENTER": 272.049, "MEAN_ANOMALY": 143.1473, "EPHEMERIS_TYPE": 0, "CLASSIFICATION_TYPE": "U", "NORAD_CAT_ID": 33938, "ELEMENT_SET_NO": 999, "REV_AT_EPOCH": 88528, "BSTAR": 0.00032736, "MEAN_MOTION_DOT": 1.161e-05, "MEAN_MOTION_DDOT": 0}, "tle": {"line1": "1 33938U 93036ET  25355.58955766  .00001161  00000+0  32736-3 0  9990", "line2": "2 33938  74.0437 190.6530 0016812 272.0490 143.1473 14.46817921885286"}}, "geometry": {"type": "Point", "coordinates": [20.002442941231863, -32.661060342420214]}}]}